NORAD_CAT_ID,OBJECT_NAME,OBJECT_TYPE,EPOCH,MEAN_MOTION,ECCENTRICITY,INCLINATION,RA_OF_ASC_NODE,ARG_OF_PERICENTER,MEAN_ANOMALY,BSTAR,MEAN_MOTION_DOT,MEAN_MOTION_DDOT,TLE_LINE0,TLE_LINE1,TLE_LINE2,SEMIMAJOR_AXIS,PERIOD,APOGEE,PERIGEE,DECAYED
55423.0,STARLINK-5068,PAYLOAD,2023-02-17 13:38:19,15.69910819,0.0003421,69.9984,42.2474,276.8329,83.2478,1.3831e-07,-1.96e-06,0.0,0 STARLINK-5068,1 55423U 23014AJ  23048.56828448 -.00000196  00000-0  13831-6 0  9990,2 55423  69.9984  42.2474 0003421 276.8329  83.2478 15.69910819  3796,6737.289,91.725,361.459,356.849,0.0
55423.0,STARLINK-5068,PAYLOAD,2023-02-17 18:13:34,15.69934702,0.000346,69.9984,41.7103,278.918,81.1624,0.00012118,0.0001439,0.0,0 STARLINK-5068,1 55423U 23014AJ  23048.75943085  .00014390  00000-0  12118-3 0  9990,2 55423  69.9984  41.7103 0003460 278.9180  81.1624 15.69934702  2886,6737.221,91.724,361.417,356.755,0.0
55423.0,STARLINK-5068,PAYLOAD,2023-02-17 21:17:05,15.69917751,0.0003588,69.9985,41.351,279.4813,80.5978,8.8407e-05,0.00010428,0.0,0 STARLINK-5068,1 55423U 23014AJ  23048.88686753  .00010428  00000-0  88407-4 0  9993,2 55423  69.9985  41.3510 0003588 279.4813  80.5978 15.69917751  3842,6737.269,91.725,361.552,356.717,0.0
55423.0,STARLINK-5068,PAYLOAD,2023-02-18 01:52:20,15.69930325,0.0003383,69.9986,40.8137,276.9981,83.083,0.00018727,0.00022371,0.0,0 STARLINK-5068,1 55423U 23014AJ  23049.07801722  .00022371  00000-0  18727-3 0  9997,2 55423  69.9986  40.8137 0003383 276.9981  83.0830 15.69930325  2939,6737.233,91.724,361.378,356.819,0.0
55423.0,STARLINK-5068,PAYLOAD,2023-02-18 14:06:21,15.69936443,0.0003229,69.9986,39.38,285.5905,74.4934,0.00039663,0.00047774,0.0,0 STARLINK-5068,1 55423U 23014AJ  23049.58774869  .00047774  00000-0  39663-3 0  9990,2 55423  69.9986  39.3800 0003229 285.5905  74.4934 15.69936443  3959,6737.216,91.723,361.256,356.905,0.0
55423.0,STARLINK-5068,PAYLOAD,2023-02-19 02:20:22,15.69936167,0.0003305,69.9985,37.9466,271.5772,88.5045,0.00047875,0.00057779,0.0,0 STARLINK-5068,1 55423U 23014AJ  23050.09747977  .00057779  00000-0  47875-3 0  9998,2 55423  69.9985  37.9466 0003305 271.5772  88.5045 15.69936167  3099,6737.217,91.723,361.308,356.855,0.0
55423.0,STARLINK-5068,PAYLOAD,2023-02-19 11:30:52,15.69944752,0.0003279,69.9988,36.8715,271.6153,88.4667,0.00043986,0.00053057,0.0,0 STARLINK-5068,1 55423U 23014AJ  23050.47977868  .00053057  00000-0  43986-3 0  9998,2 55423  69.9988  36.8715 0003279 271.6153  88.4667 15.69944752  3156,6737.192,91.723,361.266,356.848,0.0
55423.0,STARLINK-5068,PAYLOAD,2023-02-19 14:34:23,15.69918009,0.0003093,69.9988,36.513,282.2139,77.8711,0.00038548,0.00046381,0.0,0 STARLINK-5068,1 55423U 23014AJ  23050.60721611  .00046381  00000-0  38548-3 0  9996,2 55423  69.9988  36.5130 0003093 282.2139  77.8711 15.69918009  4115,6737.269,91.725,361.217,357.05,0.0
55423.0,STARLINK-5068,PAYLOAD,2023-02-19 19:09:38,15.6991691,0.0003475,69.9988,35.9756,275.146,84.9339,0.00042141,0.00050751,0.0,0 STARLINK-5068,1 55423U 23014AJ  23050.79836612  .00050751  00000-0  42141-3 0  9994,2 55423  69.9988  35.9756 0003475 275.1460  84.9339 15.69916910  3207,6737.272,91.725,361.478,356.796,0.0
55423.0,STARLINK-5068,PAYLOAD,2023-02-20 10:27:09,15.69942312,0.0003156,69.9989,34.1836,264.6102,95.4734,0.00040392,0.00048673,0.0,0 STARLINK-5068,1 55423U 23014AJ  23051.43553118  .00048673  00000-0  40392-3 0  9999,2 55423  69.9989  34.1836 0003156 264.6102  95.4734 15.69942312  3302,6737.199,91.723,361.19,356.938,0.0
55423.0,STARLINK-5068,PAYLOAD,2023-02-20 13:30:40,15.69943484,0.0003237,69.999,33.8255,265.0425,95.0401,0.00047534,0.0005738,0.0,0 STARLINK-5068,1 55423U 23014AJ  23051.56296335  .00057380  00000-0  47534-3 0  9998,2 55423  69.9990  33.8255 0003237 265.0425  95.0401 15.69943484  4262,6737.196,91.723,361.242,356.88,0.0
55423.0,STARLINK-5068,PAYLOAD,2023-02-20 18:05:55,15.69924563,0.0003115,69.9989,33.288,267.8504,92.2335,0.00047413,0.00057186,0.0,0 STARLINK-5068,1 55423U 23014AJ  23051.75411656  .00057186  00000-0  47413-3 0  9994,2 55423  69.9989  33.2880 0003115 267.8504  92.2335 15.69924563  3352,6737.25,91.724,361.213,357.016,0.0
55423.0,STARLINK-5068,PAYLOAD,2023-02-21 09:23:26,15.69937416,0.00031,69.9993,31.4963,269.9123,90.1718,0.0003327,0.00040003,0.0,0 STARLINK-5068,1 55423U 23014AJ  23052.39128057  .00040003  00000-0  33270-3 0  9991,2 55423  69.9993  31.4963 0003100 269.9123  90.1718 15.69937416  3457,6737.213,91.723,361.167,356.99,0.0
55423.0,STARLINK-5068,PAYLOAD,2023-02-21 13:58:42,15.69914174,0.0003052,69.9993,30.9586,278.1433,81.9416,0.00035324,0.00042457,0.0,0 STARLINK-5068,1 55423U 23014AJ  23052.58243338  .00042457  00000-0  35324-3 0  9999,2 55423  69.9993  30.9586 0003052 278.1433  81.9416 15.69914174  4421,6737.28,91.725,361.201,357.088,0.0
55423.0,STARLINK-5068,PAYLOAD,2023-02-21 18:33:57,15.69929284,0.0003114,69.9993,30.4212,276.905,83.1792,0.00063295,0.00076605,0.0,0 STARLINK-5068,1 55423U 23014AJ  23052.77358349  .00076605  00000-0  63295-3 0  9999,2 55423  69.9993  30.4212 0003114 276.9050  83.1792 15.69929284  3510,6737.236,91.724,361.199,357.003,0.0
55423.0,STARLINK-5068,PAYLOAD,2023-02-21 21:37:27,15.69943518,0.0003117,69.9992,30.0629,277.1587,82.9254,0.00071414,0.00086614,0.0,0 STARLINK-5068,1 55423U 23014AJ  23052.90101602  .00086614  00000-0  71414-3 0  9995,2 55423  69.9992  30.0629 0003117 277.1587  82.9254 15.69943518  4470,6737.196,91.723,361.161,356.961,0.0
55423.0,STARLINK-5068,PAYLOAD,2023-02-22 00:40:57,15.69955021,0.0003086,69.9992,29.7045,279.2092,80.8755,0.00055066,0.00066609,0.0,0 STARLINK-5068,1 55423U 23014AJ  23053.02844746  .00066609  00000-0  55066-3 0  9999,2 55423  69.9992  29.7045 0003086 279.2092  80.8755 15.69955021  3559,6737.163,91.722,361.107,356.949,0.0
55423.0,STARLINK-5068,PAYLOAD,2023-02-22 09:51:28,15.69910656,0.000318,69.9994,28.6297,286.1158,73.9688,0.00040182,0.00048353,0.0,0 STARLINK-5068,1 55423U 23014AJ  23053.41075202  .00048353  00000-0  40182-3 0  9994,2 55423  69.9994  28.6297 0003180 286.1158  73.9688 15.69910656  3613,6737.29,91.725,361.297,357.012,0.0
55423.0,STARLINK-5068,PAYLOAD,2023-02-22 22:05:30,15.69930689,0.0003326,69.9993,27.1962,280.1296,79.9524,0.00043063,0.00051902,0.0,0 STARLINK-5068,1 55423U 23014AJ  23053.92048672  .00051902  00000-0  43063-3 0  9996,2 55423  69.9993  27.1962 0003326 280.1296  79.9524 15.69930689  4630,6737.232,91.724,361.338,356.856,0.0
55423.0,STARLINK-5068,PAYLOAD,2023-02-23 04:12:30,15.6995388,0.0003063,69.9993,26.4799,277.8331,82.2517,0.00032431,0.00039011,0.0,0 STARLINK-5068,1 55423U 23014AJ  23054.17534996  .00039011  00000-0  32431-3 0  9997,2 55423  69.9993  26.4799 0003063 277.8331  82.2517 15.69953880  3738,6737.166,91.722,361.095,356.967,0.0
55423.0,STARLINK-5068,PAYLOAD,2023-02-23 10:19:30,15.69941549,0.0002882,69.9994,25.7632,288.1137,71.9744,0.0001986,0.0002375,0.0,0 STARLINK-5068,1 55423U 23014AJ  23054.43021975  .00023750  00000-0  19860-3 0  9998,2 55423  69.9994  25.7632 0002882 288.1137  71.9744 15.69941549  3774,6737.201,91.723,361.008,357.125,0.0
55423.0,STARLINK-5068,PAYLOAD,2023-02-24 04:40:32,15.6994004,0.0003471,69.9996,23.6138,272.557,87.5228,0.00075506,0.00091636,0.0,0 STARLINK-5068,1 55423U 23014AJ  23055.19482035  .00091636  00000-0  75506-3 0  9997,2 55423  69.9996  23.6138 0003471 272.5570  87.5228 15.69940040  3895,6737.206,91.723,361.409,356.732,0.0
55423.0,STARLINK-5068,PAYLOAD,2023-02-24 06:12:17,15.6995441,0.0003425,69.9996,23.4346,271.2101,88.8702,0.00077728,0.00094426,0.0,0 STARLINK-5068,1 55423U 23014AJ  23055.25853558  .00094426  00000-0  77728-3 0  9994,2 55423  69.9996  23.4346 0003425 271.2101  88.8702 15.69954410  4842,6737.164,91.722,361.337,356.722,0.0
55423.0,STARLINK-5068,PAYLOAD,2023-02-25 03:36:49,15.699483,0.0002356,69.9999,20.9283,265.2658,94.8268,0.00026098,0.00031312,0.0,0 STARLINK-5068,1 55423U 23014AJ  23056.15057264  .00031312  00000-0  26098-3 0  9993,2 55423  69.9999  20.9283 0002356 265.2658  94.8268 15.69948300  4046,6737.182,91.723,360.634,357.46,0.0
55423.0,STARLINK-5068,PAYLOAD,2023-02-25 08:12:04,15.69944513,0.0003447,69.9994,20.3899,265.4642,94.616,0.00020371,0.00024374,0.0,0 STARLINK-5068,1 55423U 23014AJ  23056.34172097  .00024374  00000-0  20371-3 0  9994,2 55423  69.9994  20.3899 0003447 265.4642  94.6160 15.69944513  4079,6737.193,91.723,361.38,356.735,0.0
55423.0,STARLINK-5068,PAYLOAD,2023-02-25 20:26:05,15.69938079,0.0003173,69.9998,18.9563,271.0506,89.0326,0.00010007,0.00011843,0.0,0 STARLINK-5068,1 55423U 23014AJ  23056.85145416  .00011843  00000-0  10007-3 0  9997,2 55423  69.9998  18.9563 0003173 271.0506  89.0326 15.69938079  4153,6737.211,91.723,361.214,356.938,0.0
55423.0,STARLINK-5068,PAYLOAD,2023-02-25 21:57:50,15.69933717,0.0003167,69.9996,18.7772,271.1534,88.9299,8.7988e-05,0.00010384,0.0,0 STARLINK-5068,1 55423U 23014AJ  23056.91517178  .00010384  00000-0  87988-4 0  9994,2 55423  69.9996  18.7772 0003167 271.1534  88.9299 15.69933717  5103,6737.224,91.724,361.222,356.955,0.0
55423.0,STARLINK-5068,PAYLOAD,2023-02-26 07:08:21,15.69947814,0.0003388,69.9997,17.7029,268.9449,91.1359,0.00011039,0.00013094,0.0,0 STARLINK-5068,1 55423U 23014AJ  23057.29746632  .00013094  00000-0  11039-3 0  9999,2 55423  69.9997  17.7029 0003388 268.9449  91.1359 15.69947814  5164,6737.183,91.723,361.331,356.766,0.0
55423.0,STARLINK-5068,PAYLOAD,2023-02-26 22:25:53,15.69919203,0.0002518,69.9996,15.9116,267.5166,92.5742,-9.5641e-06,-1.362e-05,0.0,0 STARLINK-5068,1 55423U 23014AJ  23057.93464146 -.00001362  00000-0 -95641-5 0  9997,2 55423  69.9996  15.9116 0002518 267.5166  92.5742 15.69919203  4324,6737.265,91.724,360.827,357.434,0.0
55423.0,STARLINK-5068,PAYLOAD,2023-02-27 04:32:52,15.699458,0.0002857,69.9995,15.1952,259.0354,101.0521,7.2402e-05,8.509e-05,0.0,0 STARLINK-5068,1 55423U 23014AJ  23058.18950092  .00008509  00000-0  72402-4 0  9992,2 55423  69.9995  15.1952 0002857 259.0354 101.0521 15.69945800  4361,6737.189,91.723,360.979,357.129,0.0
